[
  {
    "OBJECT_NAME": "YAOGAN-24",
    "OBJECT_ID": "2014-072A",
    "EPOCH": "2025-05-17T20:04:32.259072",
    "MEAN_MOTION": 14.76162531,
    "ECCENTRICITY": 0.0015511,
    "INCLINATION": 98.096,
    "RA_OF_ASC_NODE": 268.1703,
    "ARG_OF_PERICENTER": 95.6834,
    "MEAN_ANOMALY": 264.6144,
    "EPHEMERIS_TYPE": 0,
    "CLASSIFICATION_TYPE": "U",
    "NORAD_CAT_ID": 40310,
    "ELEMENT_SET_NO": 999,
    "REV_AT_EPOCH": 56541,
    "BSTAR": 0.00017474,
    "MEAN_MOTION_DOT": 1.157e-05,
    "MEAN_MOTION_DDOT": 0
  },
  {
    "OBJECT_NAME": "CBERS 4",
    "OBJECT_ID": "2014-079A",
    "EPOCH": "2025-05-17T19:54:31.614912",
    "MEAN_MOTION": 14.35500675,
    "ECCENTRICITY": 0.0002005,
    "INCLINATION": 98.3544,
    "RA_OF_ASC_NODE": 202.6327,
    "ARG_OF_PERICENTER": 81.7347,
    "MEAN_ANOMALY": 278.4067,
    "EPHEMERIS_TYPE": 0,
    "CLASSIFICATION_TYPE": "U",
    "NORAD_CAT_ID": 40336,
    "ELEMENT_SET_NO": 999,
    "REV_AT_EPOCH": 54725,
    "BSTAR": 7.6572e-05,
    "MEAN_MOTION_DOT": 1.78e-06,
    "MEAN_MOTION_DDOT": 0
  },
  {
    "OBJECT_NAME": "YAOGAN-26",
    "OBJECT_ID": "2014-088A",
    "EPOCH": "2025-05-17T21:10:13.438272",
    "MEAN_MOTION": 15.32149006,
    "ECCENTRICITY": 0.0007618,
    "INCLINATION": 97.0652,
    "RA_OF_ASC_NODE": 147.2077,
    "ARG_OF_PERICENTER": 56.2088,
    "MEAN_ANOMALY": 303.9879,
    "EPHEMERIS_TYPE": 0,
    "CLASSIFICATION_TYPE": "U",
    "NORAD_CAT_ID": 40362,
    "ELEMENT_SET_NO": 999,
    "REV_AT_EPOCH": 57835,
    "BSTAR": 0.00053585,
    "MEAN_MOTION_DOT": 0.00016591,
    "MEAN_MOTION_DDOT": 0
  },
  {
    "OBJECT_NAME": "SMAP",
    "OBJECT_ID": "2015-003A",
    "EPOCH": "2025-05-17T20:46:45.853536",
    "MEAN_MOTION": 14.6338279,
    "ECCENTRICITY": 0.0001625,
    "INCLINATION": 98.1281,
    "RA_OF_ASC_NODE": 145.5343,
    "ARG_OF_PERICENTER": 102.8902,
    "MEAN_ANOMALY": 257.2482,
    "EPHEMERIS_TYPE": 0,
    "CLASSIFICATION_TYPE": "U",
    "NORAD_CAT_ID": 40376,
    "ELEMENT_SET_NO": 999,
    "REV_AT_EPOCH": 54980,
    "BSTAR": 0.0001436,
    "MEAN_MOTION_DOT": 6.95e-06,
    "MEAN_MOTION_DDOT": 0
  },
  {
    "OBJECT_NAME": "KOMPSAT-3A",
    "OBJECT_ID": "2015-014A",
    "EPOCH": "2025-05-17T20:02:17.830176",
    "MEAN_MOTION": 15.36292343,
    "ECCENTRICITY": 0.0004749,
    "INCLINATION": 97.6556,
    "RA_OF_ASC_NODE": 102.4765,
    "ARG_OF_PERICENTER": 145.822,
    "MEAN_ANOMALY": 214.333,
    "EPHEMERIS_TYPE": 0,
    "CLASSIFICATION_TYPE": "U",
    "NORAD_CAT_ID": 40536,
    "ELEMENT_SET_NO": 999,
    "REV_AT_EPOCH": 56083,
    "BSTAR": 0.00050647,
    "MEAN_MOTION_DOT": 0.00017861,
    "MEAN_MOTION_DDOT": 0
  },
  {
    "OBJECT_NAME": "SENTINEL-2A",
    "OBJECT_ID": "2015-028A",
    "EPOCH": "2025-05-17T19:55:17.980608",
    "MEAN_MOTION": 14.30813319,
    "ECCENTRICITY": 0.0001239,
    "INCLINATION": 98.5696,
    "RA_OF_ASC_NODE": 213.341,
    "ARG_OF_PERICENTER": 98.8609,
    "MEAN_ANOMALY": 261.2714,
    "EPHEMERIS_TYPE": 0,
    "CLASSIFICATION_TYPE": "U",
    "NORAD_CAT_ID": 40697,
    "ELEMENT_SET_NO": 999,
    "REV_AT_EPOCH": 51719,
    "BSTAR": 8.5589e-05,
    "MEAN_MOTION_DOT": 1.81e-06,
    "MEAN_MOTION_DDOT": 0
  },
  {
    "OBJECT_NAME": "GAOFEN-8",
    "OBJECT_ID": "2015-030A",
    "EPOCH": "2025-05-17T20:11:41.244576",
    "MEAN_MOTION": 15.31496343,
    "ECCENTRICITY": 0.0013221,
    "INCLINATION": 97.6881,
    "RA_OF_ASC_NODE": 307.1651,
    "ARG_OF_PERICENTER": 158.1356,
    "MEAN_ANOMALY": 202.0451,
    "EPHEMERIS_TYPE": 0,
    "CLASSIFICATION_TYPE": "U",
    "NORAD_CAT_ID": 40701,
    "ELEMENT_SET_NO": 999,
    "REV_AT_EPOCH": 55067,
    "BSTAR": 0.0006503,
    "MEAN_MOTION_DOT": 0.00019779,
    "MEAN_MOTION_DDOT": 0
  },
  {
    "OBJECT_NAME": "CARBONITE 1 (CBNT-1)",
    "OBJECT_ID": "2015-032D",
    "EPOCH": "2025-05-17T20:01:09.151680",
    "MEAN_MOTION": 14.8169178,
    "ECCENTRICITY": 0.0015772,
    "INCLINATION": 97.6449,
    "RA_OF_ASC_NODE": 328.2373,
    "ARG_OF_PERICENTER": 146.4126,
    "MEAN_ANOMALY": 213.8091,
    "EPHEMERIS_TYPE": 0,
    "CLASSIFICATION_TYPE": "U",
    "NORAD_CAT_ID": 40718,
    "ELEMENT_SET_NO": 999,
    "REV_AT_EPOCH": 53076,
    "BSTAR": 0.00034623,
    "MEAN_MOTION_DOT": 2.683e-05,
    "MEAN_MOTION_DDOT": 0
  },
  {
    "OBJECT_NAME": "YAOGAN-27",
    "OBJECT_ID": "2015-040A",
    "EPOCH": "2025-05-17T20:51:45.311616",
    "MEAN_MOTION": 13.16048452,
    "ECCENTRICITY": 0.0008875,
    "INCLINATION": 100.0867,
    "RA_OF_ASC_NODE": 137.0374,
    "ARG_OF_PERICENTER": 50.6134,
    "MEAN_ANOMALY": 309.5765,
    "EPHEMERIS_TYPE": 0,
    "CLASSIFICATION_TYPE": "U",
    "NORAD_CAT_ID": 40878,
    "ELEMENT_SET_NO": 999,
    "REV_AT_EPOCH": 46717,
    "BSTAR": 0.00014315,
    "MEAN_MOTION_DOT": 1.2e-07,
    "MEAN_MOTION_DDOT": 0
  },
  {
    "OBJECT_NAME": "GAOFEN-9 01",
    "OBJECT_ID": "2015-047A",
    "EPOCH": "2025-05-17T16:56:38.315328",
    "MEAN_MOTION": 14.81813508,
    "ECCENTRICITY": 0.0027788,
    "INCLINATION": 97.679,
    "RA_OF_ASC_NODE": 185.384,
    "ARG_OF_PERICENTER": 359.5064,
    "MEAN_ANOMALY": 0.6117,
    "EPHEMERIS_TYPE": 0,
    "CLASSIFICATION_TYPE": "U",
    "NORAD_CAT_ID": 40894,
    "ELEMENT_SET_NO": 999,
    "REV_AT_EPOCH": 52160,
    "BSTAR": 0.00018727,
    "MEAN_MOTION_DOT": 1.437e-05,
    "MEAN_MOTION_DDOT": 0
  },
  {
    "OBJECT_NAME": "YAOGAN-28",
    "OBJECT_ID": "2015-064A",
    "EPOCH": "2025-05-17T20:45:52.974144",
    "MEAN_MOTION": 15.23692386,
    "ECCENTRICITY": 0.0015609,
    "INCLINATION": 97.2552,
    "RA_OF_ASC_NODE": 282.1449,
    "ARG_OF_PERICENTER": 133.0254,
    "MEAN_ANOMALY": 227.2294,
    "EPHEMERIS_TYPE": 0,
    "CLASSIFICATION_TYPE": "U",
    "NORAD_CAT_ID": 41026,
    "ELEMENT_SET_NO": 999,
    "REV_AT_EPOCH": 53044,
    "BSTAR": 0.00046909,
    "MEAN_MOTION_DOT": 0.00011235,
    "MEAN_MOTION_DDOT": 0
  },
  {
    "OBJECT_NAME": "YAOGAN-29",
    "OBJECT_ID": "2015-069A",
    "EPOCH": "2025-05-17T19:41:59.580672",
    "MEAN_MOTION": 14.82612563,
    "ECCENTRICITY": 0.0001093,
    "INCLINATION": 98.0358,
    "RA_OF_ASC_NODE": 160.0955,
    "ARG_OF_PERICENTER": 160.4643,
    "MEAN_ANOMALY": 199.6612,
    "EPHEMERIS_TYPE": 0,
    "CLASSIFICATION_TYPE": "U",
    "NORAD_CAT_ID": 41038,
    "ELEMENT_SET_NO": 999,
    "REV_AT_EPOCH": 51203,
    "BSTAR": 8.2365e-05,
    "MEAN_MOTION_DOT": 6.09e-06,
    "MEAN_MOTION_DDOT": 0
  },
  {
    "OBJECT_NAME": "KENT RIDGE 1",
    "OBJECT_ID": "2015-077B",
    "EPOCH": "2025-05-17T20:25:45.486624",
    "MEAN_MOTION": 15.19826255,
    "ECCENTRICITY": 0.0009083,
    "INCLINATION": 14.9813,
    "RA_OF_ASC_NODE": 318.5758,
    "ARG_OF_PERICENTER": 74.1123,
    "MEAN_ANOMALY": 286.0199,
    "EPHEMERIS_TYPE": 0,
    "CLASSIFICATION_TYPE": "U",
    "NORAD_CAT_ID": 41167,
    "ELEMENT_SET_NO": 999,
    "REV_AT_EPOCH": 52093,
    "BSTAR": 0.00020924,
    "MEAN_MOTION_DOT": 5.364e-05,
    "MEAN_MOTION_DDOT": 0
  },
  {
    "OBJECT_NAME": "TELEOS-1",
    "OBJECT_ID": "2015-077D",
    "EPOCH": "2025-05-17T13:22:00.669216",
    "MEAN_MOTION": 15.82179199,
    "ECCENTRICITY": 0.0001926,
    "INCLINATION": 14.9771,
    "RA_OF_ASC_NODE": 109.4997,
    "ARG_OF_PERICENTER": 188.7299,
    "MEAN_ANOMALY": 171.2997,
    "EPHEMERIS_TYPE": 0,
    "CLASSIFICATION_TYPE": "U",
    "NORAD_CAT_ID": 41169,
    "ELEMENT_SET_NO": 999,
    "REV_AT_EPOCH": 52275,
    "BSTAR": 0.0011036,
    "MEAN_MOTION_DOT": 0.00247367,
    "MEAN_MOTION_DDOT": 0
  },
  {
    "OBJECT_NAME": "GAOFEN-4",
    "OBJECT_ID": "2015-083A",
    "EPOCH": "2025-05-17T07:51:29.433600",
    "MEAN_MOTION": 1.00275123,
    "ECCENTRICITY": 6.57e-05,
    "INCLINATION": 0.0973,
    "RA_OF_ASC_NODE": 69.9411,
    "ARG_OF_PERICENTER": 284.6174,
    "MEAN_ANOMALY": 104.2799,
    "EPHEMERIS_TYPE": 0,
    "CLASSIFICATION_TYPE": "U",
    "NORAD_CAT_ID": 41194,
    "ELEMENT_SET_NO": 999,
    "REV_AT_EPOCH": 3456,
    "BSTAR": 0,
    "MEAN_MOTION_DOT": -3.23e-06,
    "MEAN_MOTION_DDOT": 0
  },
  {
    "OBJECT_NAME": "JASON-3",
    "OBJECT_ID": "2016-002A",
    "EPOCH": "2025-05-17T20:46:54.164352",
    "MEAN_MOTION": 12.80927692,
    "ECCENTRICITY": 0.0007932,
    "INCLINATION": 66.0408,
    "RA_OF_ASC_NODE": 236.4325,
    "ARG_OF_PERICENTER": 270.4173,
    "MEAN_ANOMALY": 89.5933,
    "EPHEMERIS_TYPE": 0,
    "CLASSIFICATION_TYPE": "U",
    "NORAD_CAT_ID": 41240,
    "ELEMENT_SET_NO": 999,
    "REV_AT_EPOCH": 43650,
    "BSTAR": -0.00028588,
    "MEAN_MOTION_DOT": -1.27e-06,
    "MEAN_MOTION_DDOT": 0
  },
  {
    "OBJECT_NAME": "SENTINEL-3A",
    "OBJECT_ID": "2016-011A",
    "EPOCH": "2025-05-17T19:46:55.984512",
    "MEAN_MOTION": 14.26733103,
    "ECCENTRICITY": 0.0001077,
    "INCLINATION": 98.6262,
    "RA_OF_ASC_NODE": 205.8463,
    "ARG_OF_PERICENTER": 107.7623,
    "MEAN_ANOMALY": 252.3675,
    "EPHEMERIS_TYPE": 0,
    "CLASSIFICATION_TYPE": "U",
    "NORAD_CAT_ID": 41335,
    "ELEMENT_SET_NO": 999,
    "REV_AT_EPOCH": 48168,
    "BSTAR": 8.5459e-05,
    "MEAN_MOTION_DOT": 1.63e-06,
    "MEAN_MOTION_DDOT": 0
  },
  {
    "OBJECT_NAME": "ZIYUAN 3-2 (ZY 3-2)",
    "OBJECT_ID": "2016-033A",
    "EPOCH": "2025-05-17T11:47:25.814400",
    "MEAN_MOTION": 15.21129134,
    "ECCENTRICITY": 0.0007001,
    "INCLINATION": 97.4192,
    "RA_OF_ASC_NODE": 214.8693,
    "ARG_OF_PERICENTER": 242.7055,
    "MEAN_ANOMALY": 117.3468,
    "EPHEMERIS_TYPE": 0,
    "CLASSIFICATION_TYPE": "U",
    "NORAD_CAT_ID": 41556,
    "ELEMENT_SET_NO": 999,
    "REV_AT_EPOCH": 49782,
    "BSTAR": 0.00042041,
    "MEAN_MOTION_DOT": 9.298e-05,
    "MEAN_MOTION_DDOT": 0
  },
  {
    "OBJECT_NAME": "CARTOSAT-2C",
    "OBJECT_ID": "2016-040A",
    "EPOCH": "2025-05-17T21:03:05.138784",
    "MEAN_MOTION": 15.19286273,
    "ECCENTRICITY": 0.001274,
    "INCLINATION": 97.4233,
    "RA_OF_ASC_NODE": 198.4279,
    "ARG_OF_PERICENTER": 74.7931,
    "MEAN_ANOMALY": 285.4711,
    "EPHEMERIS_TYPE": 0,
    "CLASSIFICATION_TYPE": "U",
    "NORAD_CAT_ID": 41599,
    "ELEMENT_SET_NO": 999,
    "REV_AT_EPOCH": 49369,
    "BSTAR": 0.00031751,
    "MEAN_MOTION_DOT": 6.646e-05,
    "MEAN_MOTION_DDOT": 0
  }
]